NORAD_CAT_ID,OBJECT_NAME,OBJECT_TYPE,EPOCH,MEAN_MOTION,ECCENTRICITY,INCLINATION,RA_OF_ASC_NODE,ARG_OF_PERICENTER,MEAN_ANOMALY,BSTAR,MEAN_MOTION_DOT,MEAN_MOTION_DDOT,TLE_LINE0,TLE_LINE1,TLE_LINE2,SEMIMAJOR_AXIS,PERIOD,APOGEE,PERIGEE,DECAYED
52867.0,STARLINK-4126,PAYLOAD,2023-01-29 19:45:14,15.08834482,0.0001404,53.2163,78.7399,94.7653,265.3499,4.773e-05,4.72e-06,0.0,0 STARLINK-4126,1 52867U 22062AP  23029.82308452  .00000472  00000-0  47730-4 0  9996,2 52867  53.2163  78.7399 0001404  94.7653 265.3499 15.08834482 35094,6917.897,95.438,540.734,538.791,0.0
52867.0,STARLINK-4126,PAYLOAD,2023-01-30 13:14:28,15.08837522,0.0001225,53.2155,75.4696,97.2143,262.8989,6.5869e-05,7.61e-06,0.0,0 STARLINK-4126,1 52867U 22062AP  23030.55172359  .00000761  00000-0  65869-4 0  9997,2 52867  53.2155  75.4696 0001225  97.2143 262.8989 15.08837522 34714,6917.888,95.438,540.6,538.906,0.0
52867.0,STARLINK-4126,PAYLOAD,2023-01-30 19:36:01,15.08839026,0.0001312,53.2159,74.2802,87.7861,272.3281,1.9327e-05,2e-07,0.0,0 STARLINK-4126,1 52867U 22062AP  23030.81668418  .00000020  00000-0  19327-4 0  9998,2 52867  53.2159  74.2802 0001312  87.7861 272.3281 15.08839026 34758,6917.883,95.438,540.656,538.841,0.0
52867.0,STARLINK-4126,PAYLOAD,2023-01-31 03:32:57,15.08834779,0.0001311,53.2156,72.7931,102.6209,257.493,4.8159e-05,4.79e-06,0.0,0 STARLINK-4126,1 52867U 22062AP  23031.14788714  .00000479  00000-0  48159-4 0  9990,2 52867  53.2156  72.7931 0001311 102.6209 257.4930 15.08834779 35298,6917.896,95.438,540.668,538.854,0.0
52867.0,STARLINK-4126,PAYLOAD,2023-01-31 19:26:48,15.08842455,0.0001272,53.2159,69.8198,94.9027,265.211,5.193e-05,5.39e-06,0.0,0 STARLINK-4126,1 52867U 22062AP  23031.81028341  .00000539  00000-0  51930-4 0  9995,2 52867  53.2159  69.8198 0001272  94.9027 265.2110 15.08842455 34904,6917.873,95.437,540.618,538.858,0.0
52867.0,STARLINK-4126,PAYLOAD,2023-02-01 06:34:30,15.08840409,0.0001254,53.2162,67.738,96.5707,263.5428,0.00013847,1.917e-05,0.0,0 STARLINK-4126,1 52867U 22062AP  23032.27396360  .00001917  00000-0  13847-3 0  9990,2 52867  53.2162  67.7380 0001254  96.5707 263.5428 15.08840409 35463,6917.879,95.438,540.612,538.877,0.0
52867.0,STARLINK-4126,PAYLOAD,2023-02-01 09:45:16,15.08845639,0.0001272,53.2163,67.1431,94.7541,265.3597,0.00013016,1.785e-05,0.0,0 STARLINK-4126,1 52867U 22062AP  23032.40644063  .00001785  00000-0  13016-3 0  9992,2 52867  53.2163  67.1431 0001272  94.7541 265.3597 15.08845639 34995,6917.863,95.437,540.608,538.848,0.0
52867.0,STARLINK-4126,PAYLOAD,2023-02-02 03:14:31,15.08839497,0.0001647,53.2165,63.8737,82.9349,277.1831,1.567e-05,-3.9e-07,0.0,0 STARLINK-4126,1 52867U 22062AP  23033.13508941 -.00000039  00000-0  15670-4 0  9998,2 52867  53.2165  63.8737 0001647  82.9349 277.1831 15.08839497 35594,6917.882,95.438,540.886,538.608,0.0
52867.0,STARLINK-4126,PAYLOAD,2023-02-02 11:11:27,15.0884171,0.0001461,53.217,62.3858,84.9849,275.131,5.3675e-05,5.66e-06,0.0,0 STARLINK-4126,1 52867U 22062AP  23033.46628639  .00000566  00000-0  53675-4 0  9992,2 52867  53.2170  62.3858 0001461  84.9849 275.1310 15.08841710 35152,6917.875,95.437,540.751,538.729,0.0
52867.0,STARLINK-4126,PAYLOAD,2023-02-03 01:29:54,15.08846532,0.000136,53.2162,59.7092,85.1089,275.0058,9.6505e-05,1.249e-05,0.0,0 STARLINK-4126,1 52867U 22062AP  23034.06244040  .00001249  00000-0  96505-4 0  9997,2 52867  53.2162  59.7092 0001360  85.1089 275.0058 15.08846532 35739,6917.86,95.437,540.666,538.785,0.0
52867.0,STARLINK-4126,PAYLOAD,2023-02-03 07:51:26,15.08855279,0.0001308,53.2162,58.5192,95.3856,264.7286,0.00011789,1.59e-05,0.0,0 STARLINK-4126,1 52867U 22062AP  23034.32739290  .00001590  00000-0  11789-3 0  9991,2 52867  53.2162  58.5192 0001308  95.3856 264.7286 15.08855279 35774,6917.834,95.437,540.604,538.794,0.0
52867.0,STARLINK-4126,PAYLOAD,2023-02-04 07:42:14,15.08838871,0.000135,53.2165,54.0578,93.2308,266.8839,3.6676e-05,2.96e-06,0.0,0 STARLINK-4126,1 52867U 22062AP  23035.32100553  .00000296  00000-0  36676-4 0  9991,2 52867  53.2165  54.0578 0001350  93.2308 266.8839 15.08838871 35925,6917.884,95.438,540.683,538.815,0.0
52867.0,STARLINK-4126,PAYLOAD,2023-02-05 07:33:01,15.08845437,0.0001488,53.217,49.5976,101.0721,259.0438,-1.8376e-05,-5.8e-06,0.0,0 STARLINK-4126,1 52867U 22062AP  23036.31460290 -.00000580  00000-0 -18376-4 0  9993,2 52867  53.2170  49.5976 0001488 101.0721 259.0438 15.08845437 35588,6917.864,95.437,540.758,538.699,0.0
52867.0,STARLINK-4126,PAYLOAD,2023-02-06 05:48:25,15.08838656,0.0001592,53.2171,45.4346,101.6933,258.4238,0.00013212,1.815e-05,0.0,0 STARLINK-4126,1 52867U 22062AP  23037.24196557  .00001815  00000-0  13212-3 0  9991,2 52867  53.2171  45.4346 0001592 101.6933 258.4238 15.08838656 36219,6917.884,95.438,540.851,538.648,0.0
52867.0,STARLINK-4126,PAYLOAD,2023-02-06 10:34:34,15.08843817,0.0001537,53.2164,44.5415,101.6813,258.4352,0.00016982,2.416e-05,0.0,0 STARLINK-4126,1 52867U 22062AP  23037.44068183  .00002416  00000-0  16982-3 0  9991,2 52867  53.2164  44.5415 0001537 101.6813 258.4352 15.08843817 35754,6917.869,95.437,540.797,538.67,0.0
52867.0,STARLINK-4126,PAYLOAD,2023-02-07 10:25:21,15.08857433,0.0001501,53.2156,40.0814,100.0719,260.0443,0.00027997,4.173e-05,0.0,0 STARLINK-4126,1 52867U 22062AP  23038.43427580  .00004173  00000-0  27997-3 0  9991,2 52867  53.2156  40.0814 0001501 100.0719 260.0443 15.08857433 36398,6917.827,95.436,540.73,538.654,0.0
52867.0,STARLINK-4126,PAYLOAD,2023-02-07 23:08:27,15.08843555,0.0001302,53.2168,37.7048,72.6744,287.439,0.00010847,1.439e-05,0.0,0 STARLINK-4126,1 52867U 22062AP  23038.96420361  .00001439  00000-0  10847-3 0  9997,2 52867  53.2168  37.7048 0001302  72.6744 287.4390 15.08843555 36477,6917.87,95.437,540.635,538.834,0.0
52867.0,STARLINK-4126,PAYLOAD,2023-02-08 08:40:45,15.08844842,0.0001326,53.2153,35.9167,97.2006,262.9137,7.1917e-05,8.57e-06,0.0,0 STARLINK-4126,1 52867U 22062AP  23039.36164211  .00000857  00000-0  71917-4 0  9990,2 52867  53.2153  35.9167 0001326  97.2006 262.9137 15.08844842 36043,6917.866,95.437,540.648,538.813,0.0
52867.0,STARLINK-4126,PAYLOAD,2023-02-09 06:56:10,15.08835784,0.0001131,53.2154,31.7538,95.4653,264.6468,3.1126e-05,2.08e-06,0.0,0 STARLINK-4126,1 52867U 22062AP  23040.28900835  .00000208  00000-0  31126-4 0  9991,2 52867  53.2154  31.7538 0001131  95.4653 264.6468 15.08835784 36672,6917.893,95.438,540.541,538.976,0.0
52867.0,STARLINK-4126,PAYLOAD,2023-02-09 16:28:29,15.08837725,0.0001121,53.2156,29.971,91.8126,268.2995,0.00015922,2.247e-05,0.0,0 STARLINK-4126,1 52867U 22062AP  23040.68645056  .00002247  00000-0  15922-3 0  9996,2 52867  53.2156  29.9710 0001121  91.8126 268.2995 15.08837725 36244,6917.887,95.438,540.528,538.977,0.0
52867.0,STARLINK-4126,PAYLOAD,2023-02-10 06:46:57,15.08856566,0.0001149,53.2162,27.2935,97.7562,262.356,0.00056148,8.663e-05,0.0,0 STARLINK-4126,1 52867U 22062AP  23041.28260683  .00008663  00000-0  56148-3 0  9995,2 52867  53.2162  27.2935 0001149  97.7562 262.3560 15.08856566 36821,6917.83,95.437,540.49,538.9,0.0
52867.0,STARLINK-4126,PAYLOAD,2023-02-11 05:02:21,15.08850423,0.0001326,53.2154,23.1314,96.7307,263.3836,0.00040537,6.171e-05,0.0,0 STARLINK-4126,1 52867U 22062AP  23042.20997302  .00006171  00000-0  40537-3 0  9990,2 52867  53.2154  23.1314 0001326  96.7307 263.3836 15.08850423 36969,6917.849,95.437,540.631,538.796,0.0
52867.0,STARLINK-4126,PAYLOAD,2023-02-11 22:31:36,15.0884525,0.0001296,53.2146,19.8627,92.8185,267.2955,0.00029148,4.355e-05,0.0,0 STARLINK-4126,1 52867U 22062AP  23042.93861437  .00004355  00000-0  29148-3 0  9996,2 52867  53.2146  19.8627 0001296  92.8185 267.2955 15.08845250 37076,6917.864,95.437,540.626,538.833,0.0
52867.0,STARLINK-4126,PAYLOAD,2023-02-12 06:28:31,15.08856034,0.000166,53.2161,18.3729,112.2293,247.8875,0.00071994,0.00011193,0.0,0 STARLINK-4126,1 52867U 22062AP  23043.26981001  .00011193  00000-0  71994-3 0  9997,2 52867  53.2161  18.3729 0001660 112.2293 247.8875 15.08856034 37125,6917.831,95.437,540.845,538.548,0.0
52867.0,STARLINK-4126,PAYLOAD,2023-02-12 22:22:23,15.08834239,0.0001724,53.216,15.4009,107.3101,252.808,-5.9096e-05,-1.228e-05,0.0,0 STARLINK-4126,1 52867U 22062AP  23043.93221729 -.00001228  00000-0 -59096-4 0  9995,2 52867  53.2160  15.4009 0001724 107.3101 252.8080 15.08834239 37225,6917.898,95.438,540.956,538.57,0.0
52867.0,STARLINK-4126,PAYLOAD,2023-02-13 04:43:56,15.08839709,0.0001429,53.2162,14.2118,101.3234,258.7919,6.1479e-05,6.91e-06,0.0,0 STARLINK-4126,1 52867U 22062AP  23044.19717673  .00000691  00000-0  61479-4 0  9991,2 52867  53.2162  14.2118 0001429 101.3234 258.7919 15.08839709 36770,6917.881,95.438,540.735,538.758,0.0
52867.0,STARLINK-4126,PAYLOAD,2023-02-14 02:59:19,15.08846731,0.0001408,53.2159,10.047,107.547,252.5676,0.00027407,4.077e-05,0.0,0 STARLINK-4126,1 52867U 22062AP  23045.12453674  .00004077  00000-0  27407-3 0  9997,2 52867  53.2159  10.0470 0001408 107.5470 252.5676 15.08846731 37404,6917.86,95.437,540.699,538.751,0.0
52867.0,STARLINK-4126,PAYLOAD,2023-02-14 09:20:52,15.0887129,0.0001254,53.2163,8.858,98.8924,261.221,0.0014185,0.00022379,0.0,0 STARLINK-4126,1 52867U 22062AP  23045.38949522  .00022379  00000-0  14185-2 0  9990,2 52867  53.2163   8.8580 0001254  98.8924 261.2210 15.08871290 37444,6917.785,95.436,540.517,538.782,0.0
52867.0,STARLINK-4126,PAYLOAD,2023-02-14 14:07:02,15.08845443,0.0001362,53.2164,7.9654,82.4348,277.6798,0.00054127,8.338e-05,0.0,0 STARLINK-4126,1 52867U 22062AP  23045.58822027  .00008338  00000-0  54127-3 0  9992,2 52867  53.2164   7.9654 0001362  82.4348 277.6798 15.08845443 36987,6917.864,95.437,540.671,538.787,0.0
52867.0,STARLINK-4126,PAYLOAD,2023-02-15 13:57:49,15.08853114,0.0001082,53.2153,3.5072,97.4447,262.6668,0.0009667,0.00015136,0.0,0 STARLINK-4126,1 52867U 22062AP  23046.58182170  .00015136  00000-0  96670-3 0  9994,2 52867  53.2153   3.5072 0001082  97.4447 262.6668 15.08853114 37622,6917.84,95.437,540.454,538.957,0.0
